{"fetched_at":"2026-03-30T06:02:59Z","count":15439,"tles":[{"name":"STARLINK-11631 [DTC]","line1":"1 63195U 25048N   26087.68606370  .00236748  00000+0  17863-2 0  9998","line2":"2 63195  43.0002 205.8528 0003288 264.5557  95.4936 15.70972363 61501","category":"Starlink"}]}